STARLINK-34493          
1 64472U 25133A   25197.16668981 -.01497124  00000+0 -29445-1 0  9990
2 64472  53.1605 144.3126 0000997  80.7627 171.4088 15.49567292  4846
STARLINK-34492          
1 64473U 25133B   25196.91668981  .00031543  00000+0  57324-3 0  9998
2 64473  53.1607 145.5025 0000945 100.8036 198.1372 15.49292453  4803
STARLINK-34474          
1 64474U 25133C   25197.16668981  .00061224  00000+0  11023-2 0  9991
2 64474  53.1605 144.3047 0001064  88.8036 167.2589 15.49256054  4827
STARLINK-34523          
1 64475U 25133D   25196.91668981  .00044563  00000+0  80576-3 0  9991
2 64475  53.1609 145.4934 0001298  94.5358 208.2544 15.49272289  4846
STARLINK-34496          
1 64476U 25133E   25197.25002315  .00068292  00000+0  12268-2 0  9990
2 64476  53.1608 143.8971 0001399  87.0497 277.8653 15.49272497  4868
STARLINK-34375          
1 64477U 25133F   25196.91668981  .00030229  00000+0  54979-3 0  9995
2 64477  53.1608 145.4857 0001213  97.8274 208.7813 15.49292034  4867
STARLINK-34490          
1 64478U 25133G   25196.91668981  .00030005  00000+0  54590-3 0  9997
2 64478  53.1608 145.4777 0001356  94.4946 215.9528 15.49286749  4865
STARLINK-34528          
1 64479U 25133H   25196.91668981  .00037600  00000+0  68148-3 0  9990
2 64479  53.1607 145.4817 0001265  98.2471 210.2850 15.49282362  4788
STARLINK-34518          
1 64480U 25133J   25197.25002315  .00068656  00000+0  12334-2 0  9993
2 64480  53.1606 143.8815 0001268  91.2823 281.3015 15.49268935  4698
STARLINK-34526          
1 64481U 25133K   25197.25002315  .00070368  00000+0  12639-2 0  9995
2 64481  53.1606 143.8775 0001191  83.1485 291.3698 15.49264024  4742
STARLINK-34527          
1 64482U 25133L   25196.91668981  .00044629  00000+0  80682-3 0  9990
2 64482  53.1608 145.4653 0001311  91.2549 224.9505 15.49276433  4806
STARLINK-34420          
1 64483U 25133M   25197.25002315  .00070024  00000+0  12577-2 0  9997
2 64483  53.1606 143.8695 0001370  85.0304 293.3172 15.49266431  4850
STARLINK-34509          
1 64484U 25133N   25196.91668981  .00030551  00000+0  55557-3 0  9994
2 64484  53.1609 145.4574 0001043  93.9539 226.0780 15.49291055  4806
STARLINK-34409          
1 64485U 25133P   25197.25002315  .00068342  00000+0  12279-2 0  9998
2 64485  53.1606 143.8617 0001066  74.5230 307.6597 15.49267578  4852
STARLINK-34520          
1 64486U 25133Q   25197.25002315  .00068084  00000+0  12232-2 0  9991
2 64486  53.1605 143.8574 0000937  82.3857 301.7086 15.49270965  4854
STARLINK-34477          
1 64487U 25133R   25197.25002315  .00068138  00000+0  12241-2 0  9992
2 64487  53.1605 143.8535 0001111  79.9479 306.0562 15.49272189  4856
STARLINK-34217          
1 64488U 25133S   25196.91668981  .00030109  00000+0  54760-3 0  9992
2 64488  53.1608 145.4412 0001241  95.5343 232.1535 15.49294666  4695
STARLINK-34307          
1 64489U 25133T   25197.25002315  .00068707  00000+0  12343-2 0  9999
2 64489  53.1605 143.8452 0001020  84.9167 304.9235 15.49269169  4831
STARLINK-34505          
1 64490U 25133U   25197.25002315  .00068182  00000+0  12250-2 0  9995
2 64490  53.1607 143.8409 0001316  89.0132 302.7433 15.49269297  4831
STARLINK-34530          
1 64491U 25133V   25197.25002315  .00067494  00000+0  12128-2 0  9995
2 64491  53.1606 143.8371 0001283  88.1582 305.5172 15.49269687  4835
STARLINK-34522          
1 64492U 25133W   25197.25002315  .00067255  00000+0  12085-2 0  9993
2 64492  53.1606 143.8332 0001336  88.2839 307.3017 15.49271217  4850
STARLINK-34462          
1 64493U 25133X   25197.25002315  .00067096  00000+0  12057-2 0  9996
2 64493  53.1606 143.8291 0001267  85.7143 311.7969 15.49271337  4856
STARLINK-34226          
1 64494U 25133Y   25197.25002315  .00068933  00000+0  12383-2 0  9990
2 64494  53.1605 143.8254 0001400  89.6029 309.8191 15.49268739  4699
STARLINK-34364          
1 64495U 25133Z   25197.25002315  .00067910  00000+0  12202-2 0  9995
2 64495  53.1606 143.8171 0001266  89.3955 313.8570 15.49268786  4861
STARLINK-34268          
1 64496U 25133AA  25197.25002315  .00068384  00000+0  12285-2 0  9993
2 64496  53.1605 143.8212 0001242  84.3514 316.9891 15.49270942  4853
STARLINK-34363          
1 64497U 25133AB  25197.25002315  .00070694  00000+0  12697-2 0  9998
2 64497  53.1606 143.8132 0001534  79.8442 325.3492 15.49262715  4860
STARLINK-34427          
1 64498U 25133AC  25197.16668981  .00032995  00000+0  59941-3 0  9992
2 64498  53.1604 144.2076 0001326  85.9866 216.0619 15.49279712  4848
KUIPER-00039            
1 64500U 25134A   25196.78853574  .00018347  00000+0  54615-3 0  9996
2 64500  51.8676 223.4058 0007395 191.5031 168.5786 15.34736195  4670
KUIPER-00040            
1 64501U 25134B   25196.80153446  .00014952  00000+0  45961-3 0  9993
2 64501  51.8656 223.4847 0010931 205.9397 154.1042 15.33849147  4677
KUIPER-00041            
1 64502U 25134C   25197.16668981 -.00031777  00000+0 -10501-2 0  9996
2 64502  51.8703 221.6728 0009140 206.9124  33.9224 15.30583307  4269
KUIPER-00042            
1 64503U 25134D   25196.79297327  .00015814  00000+0  47642-3 0  9996
2 64503  51.8646 223.4311 0008662 194.7852 165.2881 15.34461875  4676
KUIPER-00043            
1 64504U 25134E   25196.78960258  .00016079  00000+0  48137-3 0  9990
2 64504  51.8686 223.4128 0007928 188.1771 171.9086 15.34653127  4672
KUIPER-00044            
1 64505U 25134F   25197.16668981 -.00768248  00000+0 -26744-1 0  9994
2 64505  51.8662 221.7102 0010577 198.9830  27.1405 15.31435305  4264
KUIPER-00046            
1 64506U 25134G   25196.40309487  .00016889  00000+0  50834-3 0  9998
2 64506  51.8667 225.3198 0009622 192.9899 167.0840 15.34431263  4150
KUIPER-00047            
1 64507U 25134H   25196.79834175  .00013302  00000+0  40726-3 0  9994
2 64507  51.8621 223.4595 0010254 204.1814 155.8691 15.34088727  4676
KUIPER-00048            
1 64508U 25134J   25197.09573699  .00027214  00000+0  77101-3 0  9994
2 64508  51.8754 221.7278 0003109 174.1152 185.9872 15.36062124  4260
KUIPER-00049            
1 64509U 25134K   25196.78375617  .00018877  00000+0  55474-3 0  9994
2 64509  51.8702 223.3802 0006768 187.3899 172.6988 15.35125590  4675
KUIPER-00050            
1 64510U 25134L   25196.78577540  .00015041  00000+0  44663-3 0  9993
2 64510  51.8715 223.3939 0007291 187.5876 172.5001 15.34971592  4676
KUIPER-00051            
1 64511U 25134M   25196.77882982  .00020289  00000+0  58971-3 0  9999
2 64511  51.8723 223.3496 0005029 178.9719 181.1278 15.35430918  4676
KUIPER-00052            
1 64512U 25134N   25197.22184721  .00019053  00000+0  50723-3 0  9991
2 64512  51.8747 221.0753 0003493 197.3180 162.7688 15.38216778  4280
KUIPER-00053            
1 64513U 25134P   25197.22170915  .00013900  00000+0  39778-3 0  9994
2 64513  51.8771 221.0709 0002016 169.7206 190.3822 15.36221408  4282
KUIPER-00054            
1 64514U 25134Q   25197.09474717  .00021720  00000+0  61776-3 0  9999
2 64514  51.8739 221.7208 0002925 165.0748 195.0325 15.36073945  4660
KUIPER-00055            
1 64515U 25134R   25197.08516884  .00020155  00000+0  56360-3 0  9995
2 64515  51.8765 221.6575 0000793  90.7230 269.3847 15.36655191  4570
KUIPER-00056            
1 64516U 25134S   25197.09761246  .00004367  00000+0  13391-3 0  9995
2 64516  51.8726 221.7398 0003650 179.4175 180.6816 15.35889144  4263
KUIPER-00057            
1 64517U 25134T   25196.78386150  .00025764  00000+0  75586-3 0  9996
2 64517  51.8692 223.3793 0006392 185.9442 174.1469 15.34984234  4670
KUIPER-00058            
1 64518U 25134U   25196.77751850  .00017010  00000+0  49513-3 0  9995
2 64518  51.8707 223.3414 0004474 184.1723 175.9227 15.35512693  4678
KUIPER-00059            
1 64519U 25134V   25197.21667895  .00021233  00000+0  59292-3 0  9998
2 64519  51.8763 221.0352 0000807 110.2402 249.8671 15.36663839  4277
KUIPER-00060            
1 64520U 25134W   25197.22002842  .00018322  00000+0  51769-3 0  9992
2 64520  51.8757 221.0625 0002240 139.0377 221.0778 15.36397271  4283
KUIPER-00061            
1 64521U 25134X   25196.77980522  .00022134  00000+0  64535-3 0  9993
2 64521  51.8736 223.3580 0005349 184.2183 175.8758 15.35275700  4663
KUIPER-00062            
1 64522U 25134Y   25197.10043322  .00016393  00000+0  47632-3 0  9999
2 64522  51.8742 221.7586 0004644 174.1610 185.9431 15.35598548  4263
KUIPER-00063            
1 64523U 25134Z   25197.22300246 -.00004466  00000+0 -11398-3 0  9994
2 64523  51.8735 221.0801 0002260 153.1309 206.9794 15.36196236  4280
KUIPER-00064            
1 64524U 25134AA  25197.08495922  .00021873  00000+0  60836-3 0  9995
2 64524  51.8759 221.6545 0001558 103.7263 256.3896 15.36768775  4563
KUIPER-00065            
1 64525U 25134AB  25196.79102874  .00013697  00000+0  41312-3 0  9997
2 64525  51.8702 223.4263 0008214 190.0724 170.0098 15.34554376  4661
KUIPER-00066            
1 64526U 25134AC  25197.21871720  .00019982  00000+0  56166-3 0  9995
2 64526  51.8751 221.0530 0001880 129.8791 230.2361 15.36498991  4285
2025-131D               
1 64527U 25131D   25196.88956248 -.00000268  00000+0  00000+0 0  9994
2 64527   0.9932 280.6907 3658692 174.1300 261.2308  1.00075620   245
AXIOM-4 (AX-4)          
1 64593U 25136A   25195.85349944  .00004183  00000+0  10000-3 0  9991
2 64593  51.6363 169.9496 0003692   8.7454 351.3140 15.43789036  3045
STARLINK-34280          
1 64594U 25137A   25197.25002315 -.01271454  00000+0 -95559-2 0  9998
2 64594  53.1590   6.8356 0000673 129.2335 354.3311 15.74466014  4341
STARLINK-34517          
1 64595U 25137B   25197.16668981 -.00756060  00000+0 -55802-2 0  9993
2 64595  53.1586   7.2456 0001176  68.3650 304.4816 15.74424686  4339
STARLINK-34510          
1 64596U 25137C   25197.16668981 -.00786459  00000+0 -58265-2 0  9995
2 64596  53.1589   7.2420 0000550  88.8369 285.9525 15.74426910  4335
